KUIPER-00127            
1 65956U 25228K   26063.06913868  .00004787  00000+0  71346-3 0  9997
2 65956  51.9012  16.7432 0001380 174.4915 185.6062 14.76354665 22523
KUIPER-00128            
1 65957U 25228L   26063.30082653  .00008969  00000+0  12062-2 0  9999
2 65957  51.9027  16.9450 0000815  99.6950 260.4104 14.79854078 22537
KUIPER-00129            
1 65958U 25228M   26063.07007024  .00000415  00000+0  83400-4 0  9997
2 65958  51.9031  12.9523 0000871  86.2630 273.8432 14.79933439 22574
KUIPER-00130            
1 65959U 25228N   26063.23642385  .00009131  00000+0  12232-2 0  9998
2 65959  51.9041  14.7237 0001152  99.0051 261.1041 14.80000283 12850
KUIPER-00134            
1 65960U 25228P   26063.77964303  .00079163  00000+0  20432-2 0  9999
2 65960  51.8777 344.1649 0004419 307.6344  52.4242 15.38444878 23038
KUIPER-00135            
1 65961U 25228Q   26063.06737285  .00000163  00000+0  50357-4 0  9994
2 65961  51.9037  15.5314 0000909  81.2062 278.9003 14.79921930 22536
KUIPER-00136            
1 65962U 25228R   26063.84655548  .00007374  00000+0  99662-3 0  9994
2 65962  51.9028   9.5578 0001438 109.2980 250.8138 14.79871755 22683
KUIPER-00137            
1 65963U 25228S   26063.03973790  .00008369  00000+0  10437-2 0  9995
2 65963  51.9034  10.5966 0000737  94.2766 265.8282 14.83109410 22605
KUIPER-00138            
1 65964U 25228T   26063.81822813  .00007506  00000+0  10120-2 0  9992
2 65964  51.9011   4.6340 0000774  86.7805 273.3245 14.79953032 22753
KUIPER-00140            
1 65965U 25228U   26063.81556389  .00004387  00000+0  60416-3 0  9993
2 65965  51.9010   7.2279 0000933  90.4307 269.6762 14.79927235 22713
KUIPER-00141            
1 65966U 25228V   26063.14586415  .00054704  00000+0  71367-2 0  9997
2 65966  51.9037   5.1978 0001062 142.8483 217.2553 14.79990573 22685
KUIPER-00146            
1 65967U 25228W   26063.82282293  .00004663  00000+0  69399-3 0  9992
2 65967  51.9036   4.4153 0001126 104.3543 255.7543 14.76462540 22752
KUIPER-00149            
1 65968U 25228X   26063.21590041  .00008730  00000+0  11722-2 0  9994
2 65968  51.9030   2.3072 0001682  60.7673 299.3457 14.79953971 22732
KUIPER-00154            
1 65969U 25228Y   26063.25230490  .00001684  00000+0  24976-3 0  9995
2 65969  51.9039 359.6522 0000863 170.2234 189.8746 14.79940082 22777
KUIPER-00157            
1 65970U 25228Z   26063.78984822  .00007496  00000+0  10102-2 0  9992
2 65970  51.9037 359.8816 0000740  47.8747 312.2278 14.79973815 22814
KUIPER-00144            
1 67133U 25301A   26063.78108402  .00042618  00000+0  11181-2 0  9992
2 67133  51.8681  88.8286 0007629  16.0770 344.0457 15.38202918 12982
KUIPER-00164            
1 67134U 25301B   26063.78020159 -.00049507  00000+0 -23756-2 0  9992
2 67134  51.8782  90.2178 0004157  45.3966 314.7351 15.18407926 13147
