[{"OBJECT_NAME":"KUIPER-00127","OBJECT_ID":"2025-228K","EPOCH":"2026-03-04T01:39:33.581952","MEAN_MOTION":14.76354665,"ECCENTRICITY":0.00013806,"INCLINATION":51.9012,"RA_OF_ASC_NODE":16.7432,"ARG_OF_PERICENTER":174.4915,"MEAN_ANOMALY":185.6062,"EPHEMERIS_TYPE":0,"CLASSIFICATION_TYPE":"U","NORAD_CAT_ID":65956,"ELEMENT_SET_NO":999,"REV_AT_EPOCH":2252,"BSTAR":0.00071346415,"MEAN_MOTION_DOT":4.787e-5,"MEAN_MOTION_DDOT":0},{"OBJECT_NAME":"KUIPER-00128","OBJECT_ID":"2025-228L","EPOCH":"2026-03-04T07:13:11.412192","MEAN_MOTION":14.79854078,"ECCENTRICITY":8.151e-5,"INCLINATION":51.9027,"RA_OF_ASC_NODE":16.945,"ARG_OF_PERICENTER":99.695,"MEAN_ANOMALY":260.4104,"EPHEMERIS_TYPE":0,"CLASSIFICATION_TYPE":"U","NORAD_CAT_ID":65957,"ELEMENT_SET_NO":999,"REV_AT_EPOCH":2253,"BSTAR":0.0012062317,"MEAN_MOTION_DOT":8.969e-5,"MEAN_MOTION_DDOT":0},{"OBJECT_NAME":"KUIPER-00129","OBJECT_ID":"2025-228M","EPOCH":"2026-03-04T01:40:54.068736","MEAN_MOTION":14.79933439,"ECCENTRICITY":8.715e-5,"INCLINATION":51.9031,"RA_OF_ASC_NODE":12.9523,"ARG_OF_PERICENTER":86.263,"MEAN_ANOMALY":273.8432,"EPHEMERIS_TYPE":0,"CLASSIFICATION_TYPE":"U","NORAD_CAT_ID":65958,"ELEMENT_SET_NO":999,"REV_AT_EPOCH":2257,"BSTAR":8.340015e-5,"MEAN_MOTION_DOT":4.15e-6,"MEAN_MOTION_DDOT":0},{"OBJECT_NAME":"KUIPER-00130","OBJECT_ID":"2025-228N","EPOCH":"2026-03-04T05:40:27.020640","MEAN_MOTION":14.80000283,"ECCENTRICITY":0.00011528,"INCLINATION":51.9041,"RA_OF_ASC_NODE":14.7237,"ARG_OF_PERICENTER":99.0051,"MEAN_ANOMALY":261.1041,"EPHEMERIS_TYPE":0,"CLASSIFICATION_TYPE":"U","NORAD_CAT_ID":65959,"ELEMENT_SET_NO":999,"REV_AT_EPOCH":1285,"BSTAR":0.0012232021,"MEAN_MOTION_DOT":9.131e-5,"MEAN_MOTION_DDOT":0},{"OBJECT_NAME":"KUIPER-00134","OBJECT_ID":"2025-228P","EPOCH":"2026-03-04T18:42:41.157792","MEAN_MOTION":15.38444878,"ECCENTRICITY":0.0004419,"INCLINATION":51.8777,"RA_OF_ASC_NODE":344.1649,"ARG_OF_PERICENTER":307.6344,"MEAN_ANOMALY":52.4242,"EPHEMERIS_TYPE":0,"CLASSIFICATION_TYPE":"U","NORAD_CAT_ID":65960,"ELEMENT_SET_NO":999,"REV_AT_EPOCH":2303,"BSTAR":0.0020432,"MEAN_MOTION_DOT":0.00079163,"MEAN_MOTION_DDOT":0},{"OBJECT_NAME":"KUIPER-00135","OBJECT_ID":"2025-228Q","EPOCH":"2026-03-04T01:37:01.014240","MEAN_MOTION":14.7992193,"ECCENTRICITY":9.098e-5,"INCLINATION":51.9037,"RA_OF_ASC_NODE":15.5314,"ARG_OF_PERICENTER":81.2062,"MEAN_ANOMALY":278.9003,"EPHEMERIS_TYPE":0,"CLASSIFICATION_TYPE":"U","NORAD_CAT_ID":65961,"ELEMENT_SET_NO":999,"REV_AT_EPOCH":2253,"BSTAR":5.0357216e-5,"MEAN_MOTION_DOT":1.63e-6,"MEAN_MOTION_DDOT":0},{"OBJECT_NAME":"KUIPER-00136","OBJECT_ID":"2025-228R","EPOCH":"2026-03-04T20:19:02.393472","MEAN_MOTION":14.79871755,"ECCENTRICITY":0.0001438,"INCLINATION":51.9028,"RA_OF_ASC_NODE":9.5578,"ARG_OF_PERICENTER":109.298,"MEAN_ANOMALY":250.8138,"EPHEMERIS_TYPE":0,"CLASSIFICATION_TYPE":"U","NORAD_CAT_ID":65962,"ELEMENT_SET_NO":999,"REV_AT_EPOCH":2268,"BSTAR":0.00099662,"MEAN_MOTION_DOT":7.374e-5,"MEAN_MOTION_DDOT":0},{"OBJECT_NAME":"KUIPER-00137","OBJECT_ID":"2025-228S","EPOCH":"2026-03-04T00:57:13.354560","MEAN_MOTION":14.8310941,"ECCENTRICITY":7.371e-5,"INCLINATION":51.9034,"RA_OF_ASC_NODE":10.5966,"ARG_OF_PERICENTER":94.2766,"MEAN_ANOMALY":265.8282,"EPHEMERIS_TYPE":0,"CLASSIFICATION_TYPE":"U","NORAD_CAT_ID":65963,"ELEMENT_SET_NO":999,"REV_AT_EPOCH":2260,"BSTAR":0.0010436554,"MEAN_MOTION_DOT":8.369e-5,"MEAN_MOTION_DDOT":0},{"OBJECT_NAME":"KUIPER-00138","OBJECT_ID":"2025-228T","EPOCH":"2026-03-04T19:38:14.910432","MEAN_MOTION":14.79953032,"ECCENTRICITY":7.74e-5,"INCLINATION":51.9011,"RA_OF_ASC_NODE":4.634,"ARG_OF_PERICENTER":86.7805,"MEAN_ANOMALY":273.3245,"EPHEMERIS_TYPE":0,"CLASSIFICATION_TYPE":"U","NORAD_CAT_ID":65964,"ELEMENT_SET_NO":999,"REV_AT_EPOCH":2275,"BSTAR":0.001012,"MEAN_MOTION_DOT":7.506e-5,"MEAN_MOTION_DDOT":0},{"OBJECT_NAME":"KUIPER-00140","OBJECT_ID":"2025-228U","EPOCH":"2026-03-04T19:34:24.720096","MEAN_MOTION":14.79927235,"ECCENTRICITY":9.33e-5,"INCLINATION":51.901,"RA_OF_ASC_NODE":7.2279,"ARG_OF_PERICENTER":90.4307,"MEAN_ANOMALY":269.6762,"EPHEMERIS_TYPE":0,"CLASSIFICATION_TYPE":"U","NORAD_CAT_ID":65965,"ELEMENT_SET_NO":999,"REV_AT_EPOCH":2271,"BSTAR":0.00060416,"MEAN_MOTION_DOT":4.387e-5,"MEAN_MOTION_DDOT":0},{"OBJECT_NAME":"KUIPER-00141","OBJECT_ID":"2025-228V","EPOCH":"2026-03-04T03:30:02.662560","MEAN_MOTION":14.79990573,"ECCENTRICITY":0.00010625,"INCLINATION":51.9037,"RA_OF_ASC_NODE":5.1978,"ARG_OF_PERICENTER":142.8483,"MEAN_ANOMALY":217.2553,"EPHEMERIS_TYPE":0,"CLASSIFICATION_TYPE":"U","NORAD_CAT_ID":65966,"ELEMENT_SET_NO":999,"REV_AT_EPOCH":2268,"BSTAR":0.0071367425,"MEAN_MOTION_DOT":0.00054704,"MEAN_MOTION_DDOT":0},{"OBJECT_NAME":"KUIPER-00146","OBJECT_ID":"2025-228W","EPOCH":"2026-03-04T19:44:51.901152","MEAN_MOTION":14.7646254,"ECCENTRICITY":0.0001126,"INCLINATION":51.9036,"RA_OF_ASC_NODE":4.4153,"ARG_OF_PERICENTER":104.3543,"MEAN_ANOMALY":255.7543,"EPHEMERIS_TYPE":0,"CLASSIFICATION_TYPE":"U","NORAD_CAT_ID":65967,"ELEMENT_SET_NO":999,"REV_AT_EPOCH":2275,"BSTAR":0.00069399,"MEAN_MOTION_DOT":4.663e-5,"MEAN_MOTION_DDOT":0},{"OBJECT_NAME":"KUIPER-00149","OBJECT_ID":"2025-228X","EPOCH":"2026-03-04T05:10:53.795424","MEAN_MOTION":14.79953971,"ECCENTRICITY":0.00016822,"INCLINATION":51.903,"RA_OF_ASC_NODE":2.3072,"ARG_OF_PERICENTER":60.7673,"MEAN_ANOMALY":299.3457,"EPHEMERIS_TYPE":0,"CLASSIFICATION_TYPE":"U","NORAD_CAT_ID":65968,"ELEMENT_SET_NO":999,"REV_AT_EPOCH":2273,"BSTAR":0.0011721562,"MEAN_MOTION_DOT":8.73e-5,"MEAN_MOTION_DDOT":0},{"OBJECT_NAME":"KUIPER-00154","OBJECT_ID":"2025-228Y","EPOCH":"2026-03-04T06:03:19.143360","MEAN_MOTION":14.79940082,"ECCENTRICITY":8.636e-5,"INCLINATION":51.9039,"RA_OF_ASC_NODE":359.6522,"ARG_OF_PERICENTER":170.2234,"MEAN_ANOMALY":189.8746,"EPHEMERIS_TYPE":0,"CLASSIFICATION_TYPE":"U","NORAD_CAT_ID":65969,"ELEMENT_SET_NO":999,"REV_AT_EPOCH":2277,"BSTAR":0.00024975827,"MEAN_MOTION_DOT":1.684e-5,"MEAN_MOTION_DDOT":0},{"OBJECT_NAME":"KUIPER-00157","OBJECT_ID":"2025-228Z","EPOCH":"2026-03-04T18:57:22.886208","MEAN_MOTION":14.79973815,"ECCENTRICITY":7.4e-5,"INCLINATION":51.9037,"RA_OF_ASC_NODE":359.8816,"ARG_OF_PERICENTER":47.8747,"MEAN_ANOMALY":312.2278,"EPHEMERIS_TYPE":0,"CLASSIFICATION_TYPE":"U","NORAD_CAT_ID":65970,"ELEMENT_SET_NO":999,"REV_AT_EPOCH":2281,"BSTAR":0.0010102,"MEAN_MOTION_DOT":7.496e-5,"MEAN_MOTION_DDOT":0},{"OBJECT_NAME":"KUIPER-00144","OBJECT_ID":"2025-301A","EPOCH":"2026-03-04T18:44:45.659328","MEAN_MOTION":15.38202918,"ECCENTRICITY":0.0007629,"INCLINATION":51.8681,"RA_OF_ASC_NODE":88.8286,"ARG_OF_PERICENTER":16.077,"MEAN_ANOMALY":344.0457,"EPHEMERIS_TYPE":0,"CLASSIFICATION_TYPE":"U","NORAD_CAT_ID":67133,"ELEMENT_SET_NO":999,"REV_AT_EPOCH":1298,"BSTAR":0.0011181,"MEAN_MOTION_DOT":0.00042618,"MEAN_MOTION_DDOT":0},{"OBJECT_NAME":"KUIPER-00164","OBJECT_ID":"2025-301B","EPOCH":"2026-03-04T18:43:29.417376","MEAN_MOTION":15.18407926,"ECCENTRICITY":0.0004157,"INCLINATION":51.8782,"RA_OF_ASC_NODE":90.2178,"ARG_OF_PERICENTER":45.3966,"MEAN_ANOMALY":314.7351,"EPHEMERIS_TYPE":0,"CLASSIFICATION_TYPE":"U","NORAD_CAT_ID":67134,"ELEMENT_SET_NO":999,"REV_AT_EPOCH":1314,"BSTAR":-0.0023756,"MEAN_MOTION_DOT":-0.00049507,"MEAN_MOTION_DDOT":0}]
